[{"OBJECT_NAME":"STARLINK-31165","OBJECT_ID":"2024-005W","EPOCH":"2026-03-09T22:00:01.999584","MEAN_MOTION":15.26316068,"ECCENTRICITY":8.676e-5,"INCLINATION":43,"RA_OF_ASC_NODE":218.5918,"ARG_OF_PERICENTER":265.3986,"MEAN_ANOMALY":214.815,"EPHEMERIS_TYPE":0,"CLASSIFICATION_TYPE":"U","NORAD_CAT_ID":58748,"ELEMENT_SET_NO":999,"REV_AT_EPOCH":578,"BSTAR":0.064543253,"MEAN_MOTION_DOT":0.0188386,"MEAN_MOTION_DDOT":0},{"OBJECT_NAME":"EARTHCARE","OBJECT_ID":"2024-101A","EPOCH":"2026-03-09T21:19:57.449568","MEAN_MOTION":15.57130011,"ECCENTRICITY":0.00016468,"INCLINATION":97.0361,"RA_OF_ASC_NODE":196.6804,"ARG_OF_PERICENTER":97.4714,"MEAN_ANOMALY":262.673,"EPHEMERIS_TYPE":0,"CLASSIFICATION_TYPE":"U","NORAD_CAT_ID":59908,"ELEMENT_SET_NO":999,"REV_AT_EPOCH":10111,"BSTAR":0.00024109018,"MEAN_MOTION_DOT":0.00017396,"MEAN_MOTION_DDOT":0}]
